{"fetched_at":"2026-07-18T17:30:16.246Z","source":"https://celestrak.org/NORAD/elements/gp.php?NAME=SENTINEL&FORMAT=JSON","constellation":"sentinel-3","records":[{"OBJECT_NAME":"SENTINEL-3A","OBJECT_ID":"2016-011A","EPOCH":"2026-07-18T06:49:04.858464","CLASSIFICATION_TYPE":"U","MEAN_MOTION":14.26740311,"ECCENTRICITY":0.00013274,"INCLINATION":98.6235,"RA_OF_ASC_NODE":266.2187,"ARG_OF_PERICENTER":89.2817,"MEAN_ANOMALY":270.8515,"EPHEMERIS_TYPE":0,"NORAD_CAT_ID":41335,"ELEMENT_SET_NO":999,"REV_AT_EPOCH":54249,"BSTAR":0.000034107547,"MEAN_MOTION_DOT":3.9e-7,"MEAN_MOTION_DDOT":0},{"OBJECT_NAME":"SENTINEL-3B","OBJECT_ID":"2018-039A","EPOCH":"2026-07-18T04:29:25.681920","CLASSIFICATION_TYPE":"U","MEAN_MOTION":14.26736887,"ECCENTRICITY":0.00012168,"INCLINATION":98.6234,"RA_OF_ASC_NODE":266.2721,"ARG_OF_PERICENTER":119.6897,"MEAN_ANOMALY":240.4405,"EPHEMERIS_TYPE":0,"NORAD_CAT_ID":43437,"ELEMENT_SET_NO":999,"REV_AT_EPOCH":42854,"BSTAR":0.000037091753,"MEAN_MOTION_DOT":4.6e-7,"MEAN_MOTION_DDOT":0}]}
