SENTINEL-3A             
1 41335U 16011A   26199.28408401  .00000039  00000+0  34108-4 0  9990
2 41335  98.6235 266.2187 0001327  89.2817 270.8515 14.26740311542492
SENTINEL-3B             
1 43437U 18039A   26199.18710280  .00000046  00000+0  37092-4 0  9990
2 43437  98.6234 266.2721 0001216 119.6897 240.4405 14.26736887428546
